<?xml version='1.0' encoding='utf-8'?>
<gpx xmlns="http://www.topografix.com/GPX/1/1" version="1.1" creator="Wild Quest location prefetch">
  <metadata>
    <name>Pashan Lake</name>
  </metadata>
  <trk>
    <name>Mapped walking ways near Pashan Lake; not a verified route</name>
    <trkseg>
      <trkpt lat="18.5363184" lon="73.7815902" />
      <trkpt lat="18.5362877" lon="73.7816266" />
      <trkpt lat="18.536182" lon="73.7819771" />
      <trkpt lat="18.5361064" lon="73.7822846" />
      <trkpt lat="18.5359508" lon="73.7829529" />
      <trkpt lat="18.5359092" lon="73.782983" />
      <trkpt lat="18.5358247" lon="73.7829846" />
      <trkpt lat="18.5357521" lon="73.7829734" />
      <trkpt lat="18.5355437" lon="73.7829081" />
      <trkpt lat="18.5352451" lon="73.7828283" />
      <trkpt lat="18.5349362" lon="73.7827679" />
      <trkpt lat="18.5345076" lon="73.7826376" />
      <trkpt lat="18.5341568" lon="73.7825283" />
      <trkpt lat="18.5339216" lon="73.7824273" />
      <trkpt lat="18.5337263" lon="73.7823285" />
      <trkpt lat="18.5335768" lon="73.7822087" />
      <trkpt lat="18.5333536" lon="73.7820132" />
      <trkpt lat="18.5332081" lon="73.7818871" />
      <trkpt lat="18.5331602" lon="73.7818366" />
      <trkpt lat="18.5331084" lon="73.7817084" />
      <trkpt lat="18.5329948" lon="73.7814477" />
      <trkpt lat="18.5328732" lon="73.7811282" />
      <trkpt lat="18.5328233" lon="73.7809689" />
      <trkpt lat="18.5327452" lon="73.7808207" />
      <trkpt lat="18.5325873" lon="73.7807314" />
      <trkpt lat="18.5325405" lon="73.7807378" />
      <trkpt lat="18.5324982" lon="73.7807171" />
      <trkpt lat="18.5323184" lon="73.7805227" />
      <trkpt lat="18.5321582" lon="73.7803471" />
      <trkpt lat="18.5320107" lon="73.780285" />
      <trkpt lat="18.531823" lon="73.7801992" />
      <trkpt lat="18.5317195" lon="73.7801429" />
      <trkpt lat="18.5315773" lon="73.7800271" />
      <trkpt lat="18.5316343" lon="73.7797883" />
    </trkseg>
    <trkseg>
      <trkpt lat="18.5260115" lon="73.7736029" />
      <trkpt lat="18.5258299" lon="73.7737323" />
      <trkpt lat="18.5257253" lon="73.7737817" />
      <trkpt lat="18.525681" lon="73.7738326" />
      <trkpt lat="18.525656" lon="73.773955" />
      <trkpt lat="18.5256184" lon="73.7741826" />
      <trkpt lat="18.5256019" lon="73.7744738" />
      <trkpt lat="18.5256056" lon="73.774659" />
      <trkpt lat="18.5256144" lon="73.7748053" />
    </trkseg>
    <trkseg>
      <trkpt lat="18.5274265" lon="73.7845109" />
      <trkpt lat="18.5274164" lon="73.7845364" />
      <trkpt lat="18.5273744" lon="73.7848073" />
      <trkpt lat="18.5273057" lon="73.7851118" />
      <trkpt lat="18.5271697" lon="73.785561" />
      <trkpt lat="18.5270285" lon="73.786021" />
      <trkpt lat="18.5268848" lon="73.7864488" />
      <trkpt lat="18.5268162" lon="73.7866661" />
      <trkpt lat="18.5267977" lon="73.7867207" />
      <trkpt lat="18.526778" lon="73.7867895" />
    </trkseg>
    <trkseg>
      <trkpt lat="18.5258955" lon="73.7898684" />
      <trkpt lat="18.5259299" lon="73.7902313" />
      <trkpt lat="18.5257582" lon="73.7905581" />
    </trkseg>
    <trkseg>
      <trkpt lat="18.5256231" lon="73.7892498" />
      <trkpt lat="18.5254675" lon="73.7891105" />
      <trkpt lat="18.5252974" lon="73.7890445" />
      <trkpt lat="18.5251607" lon="73.7890339" />
      <trkpt lat="18.5249729" lon="73.7890312" />
      <trkpt lat="18.525132" lon="73.7888293" />
      <trkpt lat="18.5253303" lon="73.7886251" />
      <trkpt lat="18.5258481" lon="73.7884457" />
    </trkseg>
    <trkseg>
      <trkpt lat="18.5249729" lon="73.7890312" />
      <trkpt lat="18.5249368" lon="73.7891135" />
      <trkpt lat="18.5249479" lon="73.7891835" />
      <trkpt lat="18.5249819" lon="73.7892336" />
      <trkpt lat="18.5250825" lon="73.7893893" />
      <trkpt lat="18.5250974" lon="73.7894399" />
      <trkpt lat="18.5250946" lon="73.7897909" />
      <trkpt lat="18.5251054" lon="73.7899227" />
      <trkpt lat="18.5250921" lon="73.7900287" />
      <trkpt lat="18.5250498" lon="73.7901389" />
      <trkpt lat="18.524813" lon="73.7905478" />
      <trkpt lat="18.5243742" lon="73.7911887" />
    </trkseg>
    <trkseg>
      <trkpt lat="18.5271226" lon="73.7905251" />
      <trkpt lat="18.5271951" lon="73.7906016" />
      <trkpt lat="18.5273992" lon="73.7907618" />
      <trkpt lat="18.5275976" lon="73.7908906" />
      <trkpt lat="18.5278023" lon="73.791014" />
      <trkpt lat="18.5279809" lon="73.7911005" />
      <trkpt lat="18.5281532" lon="73.7911675" />
      <trkpt lat="18.5283522" lon="73.7912359" />
      <trkpt lat="18.5287261" lon="73.7913673" />
      <trkpt lat="18.5290001" lon="73.7914646" />
      <trkpt lat="18.5292659" lon="73.7915584" />
      <trkpt lat="18.5296671" lon="73.7916946" />
      <trkpt lat="18.5298959" lon="73.7917724" />
      <trkpt lat="18.5301356" lon="73.7918555" />
      <trkpt lat="18.5302164" lon="73.791885" />
      <trkpt lat="18.5302399" lon="73.7918783" />
      <trkpt lat="18.5302946" lon="73.7917837" />
    </trkseg>
    <trkseg>
      <trkpt lat="18.5264067" lon="73.789123" />
      <trkpt lat="18.5264525" lon="73.7893704" />
      <trkpt lat="18.526551" lon="73.7896735" />
      <trkpt lat="18.5266114" lon="73.7898204" />
      <trkpt lat="18.5268575" lon="73.7902187" />
      <trkpt lat="18.5270628" lon="73.7904661" />
      <trkpt lat="18.5271226" lon="73.7905251" />
    </trkseg>
    <trkseg>
      <trkpt lat="18.5266489" lon="73.7871797" />
      <trkpt lat="18.5265211" lon="73.7875854" />
      <trkpt lat="18.5264048" lon="73.7880877" />
      <trkpt lat="18.5263654" lon="73.7884518" />
      <trkpt lat="18.5263596" lon="73.7887227" />
      <trkpt lat="18.5263717" lon="73.7889339" />
      <trkpt lat="18.5263943" lon="73.7890691" />
      <trkpt lat="18.5264067" lon="73.789123" />
    </trkseg>
    <trkseg>
      <trkpt lat="18.5259744" lon="73.7880214" />
      <trkpt lat="18.5258481" lon="73.7884457" />
      <trkpt lat="18.5258776" lon="73.7885209" />
      <trkpt lat="18.5259014" lon="73.788676" />
      <trkpt lat="18.5258972" lon="73.7888026" />
      <trkpt lat="18.5258608" lon="73.7889192" />
      <trkpt lat="18.5256231" lon="73.7892498" />
      <trkpt lat="18.5256984" lon="73.7893711" />
      <trkpt lat="18.5258955" lon="73.7898684" />
      <trkpt lat="18.5262104" lon="73.7901494" />
    </trkseg>
    <trkseg>
      <trkpt lat="18.5359508" lon="73.7829529" />
      <trkpt lat="18.5360079" lon="73.7830148" />
      <trkpt lat="18.5360766" lon="73.7830607" />
      <trkpt lat="18.5363811" lon="73.7830897" />
      <trkpt lat="18.5365116" lon="73.7831404" />
      <trkpt lat="18.5366215" lon="73.7832636" />
      <trkpt lat="18.5366467" lon="73.7835268" />
      <trkpt lat="18.5366869" lon="73.7841041" />
      <trkpt lat="18.5366948" lon="73.7847144" />
      <trkpt lat="18.5367132" lon="73.7852581" />
      <trkpt lat="18.5367395" lon="73.7860292" />
      <trkpt lat="18.5367369" lon="73.7863177" />
      <trkpt lat="18.5366317" lon="73.7868059" />
      <trkpt lat="18.5363792" lon="73.7873413" />
      <trkpt lat="18.5361986" lon="73.7876095" />
      <trkpt lat="18.5360053" lon="73.7878474" />
      <trkpt lat="18.5360008" lon="73.7878529" />
      <trkpt lat="18.5359234" lon="73.7879666" />
    </trkseg>
    <trkseg>
      <trkpt lat="18.53694" lon="73.7884785" />
      <trkpt lat="18.5369476" lon="73.7883391" />
      <trkpt lat="18.5367848" lon="73.7882881" />
      <trkpt lat="18.5366399" lon="73.7882559" />
      <trkpt lat="18.5364492" lon="73.7881164" />
      <trkpt lat="18.5364284" lon="73.7881306" />
      <trkpt lat="18.5364059" lon="73.7881459" />
      <trkpt lat="18.5363907" lon="73.7881889" />
      <trkpt lat="18.5364797" lon="73.7883096" />
      <trkpt lat="18.5364593" lon="73.7884222" />
      <trkpt lat="18.5365814" lon="73.7885778" />
      <trkpt lat="18.5367645" lon="73.7887012" />
      <trkpt lat="18.5368764" lon="73.7887763" />
      <trkpt lat="18.5369273" lon="73.7888326" />
      <trkpt lat="18.5369756" lon="73.7888299" />
      <trkpt lat="18.5369552" lon="73.7886609" />
      <trkpt lat="18.53694" lon="73.7884785" />
    </trkseg>
    <trkseg>
      <trkpt lat="18.5365846" lon="73.7923729" />
      <trkpt lat="18.5368783" lon="73.7923328" />
      <trkpt lat="18.5370813" lon="73.7923491" />
      <trkpt lat="18.5372355" lon="73.7923843" />
      <trkpt lat="18.5375001" lon="73.792387" />
    </trkseg>
    <trkseg>
      <trkpt lat="18.5308458" lon="73.7920164" />
      <trkpt lat="18.5308775" lon="73.792027" />
      <trkpt lat="18.5309145" lon="73.7920486" />
      <trkpt lat="18.530903" lon="73.7920761" />
      <trkpt lat="18.530903" lon="73.7921056" />
      <trkpt lat="18.5309164" lon="73.7921244" />
      <trkpt lat="18.5311561" lon="73.7922102" />
      <trkpt lat="18.5315045" lon="73.7923356" />
      <trkpt lat="18.5317067" lon="73.7924221" />
      <trkpt lat="18.5319069" lon="73.7925294" />
      <trkpt lat="18.5320786" lon="73.7926568" />
      <trkpt lat="18.5323863" lon="73.7928794" />
      <trkpt lat="18.5325898" lon="73.7930377" />
      <trkpt lat="18.5330749" lon="73.7933917" />
      <trkpt lat="18.53356" lon="73.7937465" />
      <trkpt lat="18.5336123" lon="73.7937847" />
      <trkpt lat="18.533703" lon="73.7938558" />
      <trkpt lat="18.5340527" lon="73.7941112" />
      <trkpt lat="18.534335" lon="73.7943245" />
      <trkpt lat="18.53467" lon="73.7945384" />
      <trkpt lat="18.5349072" lon="73.7946732" />
      <trkpt lat="18.5356141" lon="73.7950835" />
      <trkpt lat="18.5359577" lon="73.7952776" />
      <trkpt lat="18.5362792" lon="73.7954684" />
      <trkpt lat="18.5370007" lon="73.7958916" />
      <trkpt lat="18.5373873" lon="73.7961195" />
      <trkpt lat="18.5375125" lon="73.7961832" />
      <trkpt lat="18.5375583" lon="73.7962" />
      <trkpt lat="18.5375926" lon="73.7961832" />
      <trkpt lat="18.5376308" lon="73.7961497" />
      <trkpt lat="18.5376391" lon="73.796078" />
      <trkpt lat="18.5376251" lon="73.7960062" />
      <trkpt lat="18.5375829" lon="73.7957974" />
      <trkpt lat="18.5375214" lon="73.7955878" />
      <trkpt lat="18.5373371" lon="73.7949434" />
      <trkpt lat="18.5371959" lon="73.7945008" />
      <trkpt lat="18.5370529" lon="73.7940583" />
    </trkseg>
    <trkseg>
      <trkpt lat="18.5302946" lon="73.7917837" />
      <trkpt lat="18.5303105" lon="73.7917883" />
      <trkpt lat="18.5303811" lon="73.7918099" />
      <trkpt lat="18.5303728" lon="73.7918401" />
      <trkpt lat="18.5303671" lon="73.7918937" />
      <trkpt lat="18.5303715" lon="73.7919165" />
      <trkpt lat="18.530388" lon="73.7919353" />
      <trkpt lat="18.5305839" lon="73.7920111" />
      <trkpt lat="18.5307511" lon="73.7920734" />
      <trkpt lat="18.5307721" lon="73.7920748" />
      <trkpt lat="18.5308039" lon="73.792064" />
      <trkpt lat="18.5308458" lon="73.7920164" />
    </trkseg>
    <trkseg>
      <trkpt lat="18.526778" lon="73.7867895" />
      <trkpt lat="18.5266976" lon="73.7870352" />
      <trkpt lat="18.5266853" lon="73.7870705" />
      <trkpt lat="18.5266489" lon="73.7871797" />
    </trkseg>
    <trkseg>
      <trkpt lat="18.5260473" lon="73.78196" />
      <trkpt lat="18.5261371" lon="73.7820648" />
      <trkpt lat="18.5264792" lon="73.7824108" />
      <trkpt lat="18.5266267" lon="73.7825784" />
      <trkpt lat="18.5268556" lon="73.7828855" />
      <trkpt lat="18.5269751" lon="73.7830465" />
      <trkpt lat="18.5271417" lon="73.7833147" />
      <trkpt lat="18.5272447" lon="73.7835909" />
      <trkpt lat="18.527309" lon="73.7839076" />
      <trkpt lat="18.5273248" lon="73.7841287" />
      <trkpt lat="18.5273108" lon="73.7843648" />
      <trkpt lat="18.5272803" lon="73.7846705" />
      <trkpt lat="18.5272601" lon="73.7847676" />
      <trkpt lat="18.5272015" lon="73.7850326" />
      <trkpt lat="18.5268925" lon="73.7860264" />
      <trkpt lat="18.526558" lon="73.7871127" />
      <trkpt lat="18.5263902" lon="73.7876183" />
      <trkpt lat="18.5263215" lon="73.7879361" />
      <trkpt lat="18.5262862" lon="73.7880984" />
      <trkpt lat="18.5262528" lon="73.7883224" />
      <trkpt lat="18.5262198" lon="73.7887824" />
      <trkpt lat="18.5262465" lon="73.7891552" />
      <trkpt lat="18.5263075" lon="73.7894663" />
      <trkpt lat="18.5264283" lon="73.789807" />
      <trkpt lat="18.526675" lon="73.7901852" />
      <trkpt lat="18.5268162" lon="73.7904118" />
      <trkpt lat="18.5270616" lon="73.7907511" />
      <trkpt lat="18.5271455" lon="73.7908463" />
      <trkpt lat="18.5272332" lon="73.7908919" />
      <trkpt lat="18.5279008" lon="73.7911829" />
      <trkpt lat="18.5283599" lon="73.7913546" />
      <trkpt lat="18.5289378" lon="73.7915714" />
      <trkpt lat="18.5292691" lon="73.7916818" />
      <trkpt lat="18.5299621" lon="73.7919246" />
      <trkpt lat="18.5302673" lon="73.7920265" />
      <trkpt lat="18.5307301" lon="73.7921767" />
      <trkpt lat="18.5313354" lon="73.7923792" />
      <trkpt lat="18.531442" lon="73.7924305" />
      <trkpt lat="18.5316304" lon="73.7925147" />
      <trkpt lat="18.5318431" lon="73.7926273" />
      <trkpt lat="18.5320093" lon="73.792744" />
      <trkpt lat="18.5323101" lon="73.7929611" />
      <trkpt lat="18.5325929" lon="73.7931691" />
      <trkpt lat="18.5331588" lon="73.793609" />
      <trkpt lat="18.5336547" lon="73.7939751" />
      <trkpt lat="18.5341831" lon="73.7943542" />
      <trkpt lat="18.5345613" lon="73.7946028" />
      <trkpt lat="18.5350598" lon="73.794926" />
      <trkpt lat="18.5355735" lon="73.7951955" />
      <trkpt lat="18.5364788" lon="73.7956931" />
      <trkpt lat="18.5373307" lon="73.7961826" />
      <trkpt lat="18.5376257" lon="73.7963636" />
      <trkpt lat="18.5377579" lon="73.7965192" />
      <trkpt lat="18.5378546" lon="73.7967485" />
      <trkpt lat="18.5379029" lon="73.7972233" />
      <trkpt lat="18.5379728" lon="73.7980132" />
      <trkpt lat="18.5379855" lon="73.7982278" />
    </trkseg>
    <trkseg>
      <trkpt lat="18.5366467" lon="73.7835268" />
      <trkpt lat="18.5365937" lon="73.7834477" />
      <trkpt lat="18.5365409" lon="73.7833744" />
      <trkpt lat="18.5364638" lon="73.783325" />
      <trkpt lat="18.5363672" lon="73.7833123" />
      <trkpt lat="18.5362629" lon="73.7833123" />
      <trkpt lat="18.5361693" lon="73.7832852" />
      <trkpt lat="18.5361073" lon="73.783231" />
      <trkpt lat="18.5360801" lon="73.7831561" />
      <trkpt lat="18.5360766" lon="73.7830607" />
    </trkseg>
    <trkseg>
      <trkpt lat="18.5361064" lon="73.7822846" />
      <trkpt lat="18.5360441" lon="73.7823057" />
      <trkpt lat="18.5359016" lon="73.7822899" />
      <trkpt lat="18.5356873" lon="73.7822311" />
      <trkpt lat="18.5356176" lon="73.782209" />
      <trkpt lat="18.5355767" lon="73.7821806" />
      <trkpt lat="18.5355717" lon="73.7821196" />
      <trkpt lat="18.5356046" lon="73.7820082" />
      <trkpt lat="18.535691" lon="73.7817737" />
    </trkseg>
    <trkseg>
      <trkpt lat="18.5321263" lon="73.7888931" />
      <trkpt lat="18.5320689" lon="73.7889664" />
      <trkpt lat="18.5319768" lon="73.7891607" />
      <trkpt lat="18.5319888" lon="73.789191" />
      <trkpt lat="18.532229" lon="73.7892229" />
      <trkpt lat="18.5323348" lon="73.7892723" />
      <trkpt lat="18.5325024" lon="73.7893647" />
      <trkpt lat="18.5328302" lon="73.789559" />
      <trkpt lat="18.533007" lon="73.7897391" />
      <trkpt lat="18.5330982" lon="73.7897753" />
      <trkpt lat="18.5331737" lon="73.7898585" />
      <trkpt lat="18.5332039" lon="73.7898762" />
      <trkpt lat="18.5332223" lon="73.7898885" />
      <trkpt lat="18.5332408" lon="73.7899098" />
      <trkpt lat="18.5332492" lon="73.7899399" />
      <trkpt lat="18.5332777" lon="73.7900407" />
      <trkpt lat="18.5333012" lon="73.790069" />
      <trkpt lat="18.533318" lon="73.790085" />
      <trkpt lat="18.5333396" lon="73.7901036" />
      <trkpt lat="18.5333573" lon="73.7901503" />
      <trkpt lat="18.5333839" lon="73.7901923" />
      <trkpt lat="18.5334038" lon="73.7902215" />
      <trkpt lat="18.533416" lon="73.7902355" />
      <trkpt lat="18.5334304" lon="73.7902565" />
      <trkpt lat="18.5334295" lon="73.7902686" />
      <trkpt lat="18.5334379" lon="73.7902935" />
      <trkpt lat="18.5334699" lon="73.7902919" />
      <trkpt lat="18.5334866" lon="73.7903225" />
      <trkpt lat="18.5335217" lon="73.7903755" />
      <trkpt lat="18.5335781" lon="73.7904278" />
      <trkpt lat="18.5336458" lon="73.7904662" />
      <trkpt lat="18.533703" lon="73.7904882" />
      <trkpt lat="18.5337759" lon="73.7904864" />
      <trkpt lat="18.5338488" lon="73.7904534" />
      <trkpt lat="18.5339564" lon="73.7904479" />
      <trkpt lat="18.5342766" lon="73.7905058" />
      <trkpt lat="18.5346856" lon="73.7906598" />
      <trkpt lat="18.5350276" lon="73.7907322" />
      <trkpt lat="18.5353032" lon="73.7907221" />
      <trkpt lat="18.5354921" lon="73.7907648" />
      <trkpt lat="18.5357407" lon="73.7909579" />
      <trkpt lat="18.5358968" lon="73.791072" />
      <trkpt lat="18.5359749" lon="73.7911247" />
      <trkpt lat="18.5360126" lon="73.7911483" />
      <trkpt lat="18.5360231" lon="73.7911551" />
      <trkpt lat="18.5360294" lon="73.7911642" />
      <trkpt lat="18.5360457" lon="73.7911799" />
      <trkpt lat="18.5361185" lon="73.7912465" />
      <trkpt lat="18.5361879" lon="73.7913034" />
      <trkpt lat="18.536236" lon="73.7913705" />
      <trkpt lat="18.5363475" lon="73.7914434" />
    </trkseg>
    <trkseg>
      <trkpt lat="18.5364284" lon="73.7881306" />
      <trkpt lat="18.5362902" lon="73.7880601" />
      <trkpt lat="18.5362038" lon="73.7880105" />
      <trkpt lat="18.536116" lon="73.7879743" />
    </trkseg>
    <trkseg>
      <trkpt lat="18.536116" lon="73.7879743" />
      <trkpt lat="18.5360515" lon="73.7879944" />
      <trkpt lat="18.5360311" lon="73.7879327" />
      <trkpt lat="18.5360375" lon="73.7878784" />
      <trkpt lat="18.5360053" lon="73.7878474" />
    </trkseg>
    <trkseg>
      <trkpt lat="18.5358707" lon="73.7880441" />
      <trkpt lat="18.535697" lon="73.7882992" />
      <trkpt lat="18.5354649" lon="73.7886869" />
      <trkpt lat="18.5351696" lon="73.7890709" />
      <trkpt lat="18.5349887" lon="73.7892617" />
      <trkpt lat="18.5347071" lon="73.7894428" />
      <trkpt lat="18.5344293" lon="73.7896068" />
    </trkseg>
    <trkseg>
      <trkpt lat="18.5359234" lon="73.7879666" />
      <trkpt lat="18.5358707" lon="73.7880441" />
    </trkseg>
    <trkseg>
      <trkpt lat="18.5427118" lon="73.790121" />
      <trkpt lat="18.5427351" lon="73.7900418" />
      <trkpt lat="18.5427579" lon="73.7899648" />
      <trkpt lat="18.5427838" lon="73.7898798" />
      <trkpt lat="18.5429689" lon="73.7892721" />
      <trkpt lat="18.5430722" lon="73.788826" />
      <trkpt lat="18.5432746" lon="73.7881388" />
      <trkpt lat="18.5432958" lon="73.7879588" />
      <trkpt lat="18.5433164" lon="73.7877326" />
      <trkpt lat="18.5433758" lon="73.7871554" />
      <trkpt lat="18.5434069" lon="73.7869099" />
      <trkpt lat="18.5434813" lon="73.7863219" />
      <trkpt lat="18.5434881" lon="73.786162" />
      <trkpt lat="18.5435029" lon="73.7858154" />
      <trkpt lat="18.5436158" lon="73.7854252" />
      <trkpt lat="18.5437527" lon="73.7849524" />
      <trkpt lat="18.5439708" lon="73.7838345" />
      <trkpt lat="18.5439809" lon="73.7837828" />
      <trkpt lat="18.544035" lon="73.7835442" />
      <trkpt lat="18.5441073" lon="73.7832249" />
      <trkpt lat="18.5441264" lon="73.7831408" />
      <trkpt lat="18.5441015" lon="73.7830855" />
      <trkpt lat="18.5441804" lon="73.782527" />
      <trkpt lat="18.5442331" lon="73.7821536" />
      <trkpt lat="18.5442534" lon="73.7820101" />
      <trkpt lat="18.5442811" lon="73.7819273" />
      <trkpt lat="18.5443624" lon="73.7815642" />
      <trkpt lat="18.5444223" lon="73.7812894" />
      <trkpt lat="18.544474" lon="73.7810687" />
      <trkpt lat="18.544492" lon="73.7810044" />
      <trkpt lat="18.5445195" lon="73.7809085" />
      <trkpt lat="18.5447232" lon="73.7801783" />
      <trkpt lat="18.5448055" lon="73.7798845" />
      <trkpt lat="18.5448745" lon="73.7796379" />
      <trkpt lat="18.5450532" lon="73.7792096" />
      <trkpt lat="18.5451996" lon="73.7788589" />
      <trkpt lat="18.5455355" lon="73.7778831" />
    </trkseg>
    <trkseg>
      <trkpt lat="18.5458633" lon="73.7760532" />
      <trkpt lat="18.5453456" lon="73.7777436" />
      <trkpt lat="18.5449647" lon="73.7788028" />
      <trkpt lat="18.5448657" lon="73.7790782" />
      <trkpt lat="18.5445838" lon="73.779862" />
      <trkpt lat="18.5445016" lon="73.7801307" />
      <trkpt lat="18.5444452" lon="73.7803007" />
      <trkpt lat="18.544381" lon="73.7805246" />
      <trkpt lat="18.5441782" lon="73.7812603" />
    </trkseg>
    <trkseg>
      <trkpt lat="18.5433518" lon="73.7763914" />
      <trkpt lat="18.543798" lon="73.7768088" />
      <trkpt lat="18.5438509" lon="73.7768262" />
      <trkpt lat="18.5439135" lon="73.7768204" />
      <trkpt lat="18.5439601" lon="73.7767956" />
      <trkpt lat="18.5440534" lon="73.7767442" />
    </trkseg>
    <trkseg>
      <trkpt lat="18.5439638" lon="73.7756928" />
      <trkpt lat="18.5442946" lon="73.7760422" />
    </trkseg>
    <trkseg>
      <trkpt lat="18.5455355" lon="73.7778831" />
      <trkpt lat="18.5457874" lon="73.777151" />
      <trkpt lat="18.5460157" lon="73.7763606" />
      <trkpt lat="18.5463064" lon="73.7753613" />
      <trkpt lat="18.5463473" lon="73.7752377" />
      <trkpt lat="18.5464586" lon="73.774935" />
      <trkpt lat="18.5466648" lon="73.7745078" />
      <trkpt lat="18.5467318" lon="73.77448" />
      <trkpt lat="18.5469565" lon="73.7743727" />
      <trkpt lat="18.5471109" lon="73.7742975" />
      <trkpt lat="18.5473515" lon="73.7741892" />
      <trkpt lat="18.547517" lon="73.7740871" />
      <trkpt lat="18.5475697" lon="73.774041" />
    </trkseg>
    <trkseg>
      <trkpt lat="18.5411758" lon="73.7848982" />
      <trkpt lat="18.5411378" lon="73.7851648" />
      <trkpt lat="18.5415155" lon="73.785234" />
    </trkseg>
    <trkseg>
      <trkpt lat="18.5411378" lon="73.7851648" />
      <trkpt lat="18.5409904" lon="73.7859197" />
    </trkseg>
    <trkseg>
      <trkpt lat="18.5392684" lon="73.7826527" />
      <trkpt lat="18.5388172" lon="73.7824995" />
      <trkpt lat="18.538728" lon="73.7824887" />
      <trkpt lat="18.538423" lon="73.7824777" />
    </trkseg>
    <trkseg>
      <trkpt lat="18.5405066" lon="73.7815025" />
      <trkpt lat="18.5403877" lon="73.7814737" />
    </trkseg>
    <trkseg>
      <trkpt lat="18.5392684" lon="73.7826527" />
      <trkpt lat="18.539516" lon="73.7827212" />
      <trkpt lat="18.5395555" lon="73.7827334" />
      <trkpt lat="18.5395775" lon="73.7827269" />
      <trkpt lat="18.5396471" lon="73.7824234" />
    </trkseg>
    <trkseg>
      <trkpt lat="18.5427838" lon="73.7898798" />
      <trkpt lat="18.5427202" lon="73.7898493" />
    </trkseg>
    <trkseg>
      <trkpt lat="18.5427202" lon="73.7898493" />
      <trkpt lat="18.542624" lon="73.7898186" />
    </trkseg>
    <trkseg>
      <trkpt lat="18.542624" lon="73.7898186" />
      <trkpt lat="18.5425514" lon="73.7897961" />
    </trkseg>
    <trkseg>
      <trkpt lat="18.5419632" lon="73.7914514" />
      <trkpt lat="18.5418535" lon="73.7916644" />
    </trkseg>
    <trkseg>
      <trkpt lat="18.5484624" lon="73.7911609" />
      <trkpt lat="18.5482256" lon="73.7911137" />
      <trkpt lat="18.5478628" lon="73.7910487" />
      <trkpt lat="18.5474109" lon="73.7909615" />
      <trkpt lat="18.5468688" lon="73.7908283" />
      <trkpt lat="18.5466428" lon="73.7907674" />
      <trkpt lat="18.5464544" lon="73.7907166" />
      <trkpt lat="18.5459067" lon="73.7905897" />
      <trkpt lat="18.545355" lon="73.790467" />
      <trkpt lat="18.5449478" lon="73.7903948" />
      <trkpt lat="18.5449276" lon="73.7903912" />
      <trkpt lat="18.5446637" lon="73.7903595" />
      <trkpt lat="18.5442164" lon="73.7903057" />
      <trkpt lat="18.5441193" lon="73.7902939" />
      <trkpt lat="18.5439031" lon="73.7902677" />
      <trkpt lat="18.5434481" lon="73.7902082" />
      <trkpt lat="18.5432847" lon="73.7901869" />
      <trkpt lat="18.5432334" lon="73.7901802" />
      <trkpt lat="18.5431721" lon="73.7901732" />
      <trkpt lat="18.5427118" lon="73.790121" />
      <trkpt lat="18.5426369" lon="73.790143" />
      <trkpt lat="18.5419632" lon="73.7914514" />
    </trkseg>
    <trkseg>
      <trkpt lat="18.5434869" lon="73.7850744" />
      <trkpt lat="18.5434636" lon="73.7851717" />
      <trkpt lat="18.5433718" lon="73.7855672" />
      <trkpt lat="18.5432684" lon="73.7860464" />
      <trkpt lat="18.5432625" lon="73.7860875" />
      <trkpt lat="18.5432177" lon="73.7864008" />
      <trkpt lat="18.5431349" lon="73.7869799" />
      <trkpt lat="18.5430248" lon="73.7875896" />
      <trkpt lat="18.5429885" lon="73.7877907" />
      <trkpt lat="18.5429241" lon="73.7881879" />
      <trkpt lat="18.5428571" lon="73.7886015" />
      <trkpt lat="18.5427452" lon="73.7890966" />
      <trkpt lat="18.5425514" lon="73.7897961" />
    </trkseg>
    <trkseg>
      <trkpt lat="18.5418535" lon="73.7916644" />
      <trkpt lat="18.5415636" lon="73.7922893" />
      <trkpt lat="18.5415159" lon="73.7923819" />
      <trkpt lat="18.5414951" lon="73.7924923" />
      <trkpt lat="18.5413487" lon="73.7926367" />
      <trkpt lat="18.5410308" lon="73.7933864" />
      <trkpt lat="18.5409369" lon="73.7935027" />
      <trkpt lat="18.5408454" lon="73.7936027" />
      <trkpt lat="18.5407216" lon="73.7936572" />
      <trkpt lat="18.5406967" lon="73.7936686" />
    </trkseg>
    <trkseg>
      <trkpt lat="18.5409788" lon="73.7847903" />
      <trkpt lat="18.541485" lon="73.7848303" />
      <trkpt lat="18.5420818" lon="73.784872" />
      <trkpt lat="18.5426461" lon="73.7849079" />
      <trkpt lat="18.5429298" lon="73.7849357" />
      <trkpt lat="18.5431045" lon="73.7849497" />
      <trkpt lat="18.5435242" lon="73.7849964" />
    </trkseg>
    <trkseg>
      <trkpt lat="18.5455734" lon="73.7810666" />
      <trkpt lat="18.544492" lon="73.7810044" />
      <trkpt lat="18.5444321" lon="73.7809997" />
    </trkseg>
    <trkseg>
      <trkpt lat="18.5441782" lon="73.7812603" />
      <trkpt lat="18.5441453" lon="73.7813886" />
      <trkpt lat="18.5440952" lon="73.7817259" />
      <trkpt lat="18.5440845" lon="73.7817858" />
      <trkpt lat="18.5439843" lon="73.782515" />
      <trkpt lat="18.5439273" lon="73.7829304" />
      <trkpt lat="18.5438249" lon="73.7835685" />
      <trkpt lat="18.5438067" lon="73.7836822" />
      <trkpt lat="18.543778" lon="73.7838259" />
      <trkpt lat="18.5436904" lon="73.7842636" />
      <trkpt lat="18.5435548" lon="73.7848654" />
      <trkpt lat="18.5435242" lon="73.7849964" />
      <trkpt lat="18.5434949" lon="73.7850274" />
    </trkseg>
    <trkseg>
      <trkpt lat="18.5434949" lon="73.7850274" />
      <trkpt lat="18.5434869" lon="73.7850744" />
    </trkseg>
    <trkseg>
      <trkpt lat="18.5297548" lon="73.7976169" />
      <trkpt lat="18.5293983" lon="73.7995848" />
      <trkpt lat="18.5293204" lon="73.7998993" />
      <trkpt lat="18.5284429" lon="73.7997817" />
      <trkpt lat="18.5282643" lon="73.7997593" />
      <trkpt lat="18.527508" lon="73.7996551" />
      <trkpt lat="18.5273601" lon="73.799678" />
      <trkpt lat="18.5269205" lon="73.7997927" />
      <trkpt lat="18.5265848" lon="73.7997977" />
      <trkpt lat="18.5262714" lon="73.7997401" />
      <trkpt lat="18.5259318" lon="73.7996608" />
      <trkpt lat="18.5258216" lon="73.7996755" />
    </trkseg>
    <trkseg>
      <trkpt lat="18.5313539" lon="73.7964981" />
      <trkpt lat="18.5314376" lon="73.7965073" />
      <trkpt lat="18.531709" lon="73.7967187" />
      <trkpt lat="18.5320589" lon="73.796983" />
      <trkpt lat="18.5324064" lon="73.7973356" />
      <trkpt lat="18.5325457" lon="73.7974818" />
      <trkpt lat="18.5327778" lon="73.7976492" />
      <trkpt lat="18.5328664" lon="73.7977881" />
      <trkpt lat="18.5329156" lon="73.7979912" />
      <trkpt lat="18.5329414" lon="73.7983242" />
      <trkpt lat="18.5329638" lon="73.7986874" />
      <trkpt lat="18.5328965" lon="73.7989402" />
      <trkpt lat="18.5327632" lon="73.7991565" />
      <trkpt lat="18.5325952" lon="73.799339" />
      <trkpt lat="18.5323897" lon="73.7994398" />
      <trkpt lat="18.5320725" lon="73.799535" />
      <trkpt lat="18.53175" lon="73.7995994" />
      <trkpt lat="18.5316139" lon="73.7995951" />
      <trkpt lat="18.5314168" lon="73.7995914" />
      <trkpt lat="18.5312077" lon="73.7996073" />
      <trkpt lat="18.5309347" lon="73.7996306" />
      <trkpt lat="18.5307947" lon="73.7996717" />
      <trkpt lat="18.5306504" lon="73.799756" />
      <trkpt lat="18.530544" lon="73.7998238" />
      <trkpt lat="18.5303841" lon="73.7998152" />
      <trkpt lat="18.5302703" lon="73.79982" />
      <trkpt lat="18.5300633" lon="73.7998075" />
      <trkpt lat="18.529869" lon="73.7997689" />
      <trkpt lat="18.5295439" lon="73.7996469" />
      <trkpt lat="18.5293983" lon="73.7995848" />
      <trkpt lat="18.5286539" lon="73.7992674" />
      <trkpt lat="18.52773" lon="73.7989396" />
      <trkpt lat="18.5276094" lon="73.7987922" />
    </trkseg>
    <trkseg>
      <trkpt lat="18.5255345" lon="73.7982752" />
      <trkpt lat="18.5254768" lon="73.7983785" />
      <trkpt lat="18.5254798" lon="73.7984786" />
      <trkpt lat="18.5254783" lon="73.7987171" />
      <trkpt lat="18.5255023" lon="73.7990271" />
      <trkpt lat="18.5255195" lon="73.7991962" />
      <trkpt lat="18.5256133" lon="73.7993901" />
      <trkpt lat="18.5257515" lon="73.7995141" />
      <trkpt lat="18.5258177" lon="73.7995873" />
      <trkpt lat="18.5258338" lon="73.7996352" />
      <trkpt lat="18.5258216" lon="73.7996755" />
      <trkpt lat="18.5256951" lon="73.7997694" />
      <trkpt lat="18.5255285" lon="73.7999449" />
      <trkpt lat="18.5253657" lon="73.8000597" />
      <trkpt lat="18.5252065" lon="73.8003566" />
      <trkpt lat="18.5250908" lon="73.8007108" />
      <trkpt lat="18.5250082" lon="73.8008932" />
      <trkpt lat="18.5249401" lon="73.8009945" />
      <trkpt lat="18.5249154" lon="73.8012145" />
      <trkpt lat="18.5249216" lon="73.8014125" />
      <trkpt lat="18.5248689" lon="73.8016874" />
      <trkpt lat="18.5248314" lon="73.802191" />
      <trkpt lat="18.5248481" lon="73.802424" />
      <trkpt lat="18.5246892" lon="73.8027995" />
      <trkpt lat="18.5245387" lon="73.8029444" />
      <trkpt lat="18.524454" lon="73.8031226" />
      <trkpt lat="18.5242233" lon="73.8033276" />
    </trkseg>
    <trkseg>
      <trkpt lat="18.5407216" lon="73.7936572" />
      <trkpt lat="18.5407635" lon="73.7938128" />
      <trkpt lat="18.5407686" lon="73.7940327" />
      <trkpt lat="18.5407457" lon="73.7942446" />
      <trkpt lat="18.5407152" lon="73.7944297" />
      <trkpt lat="18.5407152" lon="73.7944806" />
      <trkpt lat="18.5407635" lon="73.7945075" />
      <trkpt lat="18.5407636" lon="73.7945739" />
    </trkseg>
    <trkseg>
      <trkpt lat="18.5404011" lon="73.793838" />
      <trkpt lat="18.5401261" lon="73.7939747" />
    </trkseg>
    <trkseg>
      <trkpt lat="18.5406967" lon="73.7936686" />
      <trkpt lat="18.5404011" lon="73.793838" />
    </trkseg>
    <trkseg>
      <trkpt lat="18.5461939" lon="73.7953775" />
      <trkpt lat="18.546148" lon="73.7953631" />
      <trkpt lat="18.5460248" lon="73.7955428" />
      <trkpt lat="18.5458152" lon="73.7956678" />
    </trkseg>
    <trkseg>
      <trkpt lat="18.546148" lon="73.7953631" />
      <trkpt lat="18.5461319" lon="73.7952902" />
      <trkpt lat="18.5460716" lon="73.795229" />
      <trkpt lat="18.545973" lon="73.7952476" />
      <trkpt lat="18.5459257" lon="73.7952472" />
      <trkpt lat="18.5458272" lon="73.795162" />
      <trkpt lat="18.5456789" lon="73.7950755" />
      <trkpt lat="18.5455508" lon="73.7950294" />
      <trkpt lat="18.5455093" lon="73.7950145" />
      <trkpt lat="18.5454656" lon="73.7949963" />
    </trkseg>
    <trkseg>
      <trkpt lat="18.5451707" lon="73.7950308" />
      <trkpt lat="18.5450181" lon="73.7948725" />
      <trkpt lat="18.5448756" lon="73.7945923" />
      <trkpt lat="18.5448151" lon="73.7944835" />
    </trkseg>
    <trkseg>
      <trkpt lat="18.5442491" lon="73.7941218" />
      <trkpt lat="18.5443956" lon="73.7941684" />
      <trkpt lat="18.5445503" lon="73.7942246" />
      <trkpt lat="18.5447139" lon="73.7943245" />
    </trkseg>
    <trkseg>
      <trkpt lat="18.5447139" lon="73.7943245" />
      <trkpt lat="18.5448151" lon="73.7944835" />
    </trkseg>
    <trkseg>
      <trkpt lat="18.5454656" lon="73.7949963" />
      <trkpt lat="18.5451707" lon="73.7950308" />
      <trkpt lat="18.545144" lon="73.7951069" />
      <trkpt lat="18.5449127" lon="73.7952505" />
      <trkpt lat="18.5447595" lon="73.7952851" />
      <trkpt lat="18.5446009" lon="73.7952428" />
      <trkpt lat="18.5444496" lon="73.7952678" />
      <trkpt lat="18.5443238" lon="73.7953351" />
      <trkpt lat="18.5442023" lon="73.7953239" />
    </trkseg>
  </trk>
</gpx>
